NORAD_CAT_ID,OBJECT_NAME,OBJECT_TYPE,EPOCH,MEAN_MOTION,ECCENTRICITY,INCLINATION,RA_OF_ASC_NODE,ARG_OF_PERICENTER,MEAN_ANOMALY,BSTAR,MEAN_MOTION_DOT,MEAN_MOTION_DDOT,TLE_LINE0,TLE_LINE1,TLE_LINE2,SEMIMAJOR_AXIS,PERIOD,APOGEE,PERIGEE,DECAYED
55777.0,STARLINK-5814,PAYLOAD,2023-04-04 00:52:16,15.69954153,0.0002663,70.0032,67.2549,271.461,88.6281,0.00011059,0.00013121,0.0,0 STARLINK-5814,1 55777U 23028AN  23094.03629774  .00013121  00000-0  11059-3 0  9999,2 55777  70.0032  67.2549 0002663 271.4610  88.6281 15.69954153  5585,6737.165,91.722,360.824,357.236,0.0
55777.0,STARLINK-5814,PAYLOAD,2023-04-04 06:59:17,15.6991983,0.0002858,70.0025,66.5371,263.3529,96.7341,-2.4458e-05,-3.151e-05,0.0,0 STARLINK-5814,1 55777U 23028AN  23094.29117106 -.00003151  00000-0 -24458-4 0  9990,2 55777  70.0025  66.5371 0002858 263.3529  96.7341 15.69919830  5622,6737.263,91.724,361.054,357.203,0.0
55777.0,STARLINK-5814,PAYLOAD,2023-04-05 07:27:19,15.69931506,0.0003005,70.0006,63.6702,263.433,96.6524,6.0383e-05,7.056e-05,0.0,0 STARLINK-5814,1 55777U 23028AN  23095.31063868  .00007056  00000-0  60383-4 0  9992,2 55777  70.0006  63.6702 0003005 263.4330  96.6524 15.69931506  5786,6737.23,91.724,361.119,357.07,0.0
55777.0,STARLINK-5814,PAYLOAD,2023-04-05 10:30:49,15.69930062,0.000297,70.0006,63.3109,264.8954,95.1902,0.00010338,0.00012238,0.0,0 STARLINK-5814,1 55777U 23028AN  23095.43807379  .00012238  00000-0  10338-3 0  9990,2 55777  70.0006  63.3109 0002970 264.8954  95.1902 15.69930062  5804,6737.234,91.724,361.1,357.098,0.0
55777.0,STARLINK-5814,PAYLOAD,2023-04-06 00:16:35,15.69930176,0.000305,70.001,61.6982,261.9986,98.0864,4.6835e-05,5.424e-05,0.0,0 STARLINK-5814,1 55777U 23028AN  23096.01152282  .00005424  00000-0  46835-4 0  9992,2 55777  70.0010  61.6982 0003050 261.9986  98.0864 15.69930176  5896,6737.234,91.724,361.154,357.044,0.0
55777.0,STARLINK-5814,PAYLOAD,2023-04-06 07:55:21,15.69928051,0.0003231,69.9999,60.7988,265.7184,94.3642,7.0598e-05,8.286e-05,0.0,0 STARLINK-5814,1 55777U 23028AN  23096.33010587  .00008286  00000-0  70598-4 0  9990,2 55777  69.9999  60.7988 0003231 265.7184  94.3642 15.69928051  5946,6737.24,91.724,361.282,356.928,0.0
55777.0,STARLINK-5814,PAYLOAD,2023-04-06 21:41:07,15.69923091,0.0003341,70.0009,59.1896,272.9708,87.1105,8.0809e-06,7.59e-06,0.0,0 STARLINK-5814,1 55777U 23028AN  23096.90355877  .00000759  00000-0  80809-5 0  9991,2 55777  70.0009  59.1896 0003341 272.9708  87.1105 15.69923091  6039,6737.254,91.724,361.37,356.868,0.0
55777.0,STARLINK-5814,PAYLOAD,2023-04-07 00:44:37,15.69921579,0.0003493,70.0,58.8308,254.2675,105.8136,-7.1257e-06,-1.069e-05,0.0,0 STARLINK-5814,1 55777U 23028AN  23097.03099083 -.00001069  00000-0 -71257-5 0  9994,2 55777  70.0000  58.8308 0003493 254.2675 105.8136 15.69921579  6051,6737.258,91.724,361.477,356.77,0.0
55777.0,STARLINK-5814,PAYLOAD,2023-04-07 06:51:38,15.69930527,0.0003336,70.0008,58.1153,261.8266,98.2551,2.6146e-05,2.933e-05,0.0,0 STARLINK-5814,1 55777U 23028AN  23097.28585739  .00002933  00000-0  26146-4 0  9994,2 55777  70.0008  58.1153 0003336 261.8266  98.2551 15.69930527  6099,6737.233,91.724,361.345,356.85,0.0
55777.0,STARLINK-5814,PAYLOAD,2023-04-07 23:40:54,15.69926323,0.0003489,70.0002,56.1445,261.6646,98.4154,4.1448e-06,2.86e-06,0.0,0 STARLINK-5814,1 55777U 23028AN  23097.98674199  .00000286  00000-0  41448-5 0  9992,2 55777  70.0002  56.1445 0003489 261.6646  98.4154 15.69926323  6207,6737.245,91.724,361.46,356.759,0.0
55777.0,STARLINK-5814,PAYLOAD,2023-04-08 08:51:27,15.69888105,0.0003357,70.0013,55.0712,259.4576,100.6241,-6.4303e-05,-7.926e-05,0.0,0 STARLINK-5814,1 55777U 23028AN  23098.36906379 -.00007926  00000-0 -64303-4 0  9997,2 55777  70.0013  55.0712 0003357 259.4576 100.6241 15.69888105  6269,6737.354,91.726,361.481,356.957,0.0
55777.0,STARLINK-5814,PAYLOAD,2023-04-09 03:12:27,15.6993861,0.0003773,69.9998,52.9222,263.6315,96.4451,5.0835e-05,5.908e-05,0.0,0 STARLINK-5814,1 55777U 23028AN  23099.13364672  .00005908  00000-0  50835-4 0  9998,2 55777  69.9998  52.9222 0003773 263.6315  96.4451 15.69938610  6385,6737.21,91.723,361.617,356.533,0.0
55777.0,STARLINK-5814,PAYLOAD,2023-04-09 06:15:57,15.69939806,0.0002835,70.0019,52.5641,255.9462,104.1419,5.9813e-05,6.99e-05,0.0,0 STARLINK-5814,1 55777U 23028AN  23099.26107974  .00006990  00000-0  59813-4 0  9999,2 55777  70.0019  52.5641 0002835 255.9462 104.1419 15.69939806  6400,6737.206,91.723,360.981,357.161,0.0
55777.0,STARLINK-5814,PAYLOAD,2023-04-09 23:05:13,15.69934367,0.0003139,70.0023,50.5938,248.276,111.8102,4.3067e-05,4.971e-05,0.0,0 STARLINK-5814,1 55777U 23028AN  23099.96196083  .00004971  00000-0  43067-4 0  9996,2 55777  70.0023  50.5938 0003139 248.2760 111.8102 15.69934367  6519,6737.222,91.724,361.202,356.972,0.0
55777.0,STARLINK-5814,PAYLOAD,2023-04-10 08:15:44,15.69929527,0.0003538,70.0005,49.5172,262.8791,97.2003,2.9227e-05,3.304e-05,0.0,0 STARLINK-5814,1 55777U 23028AN  23100.34426262  .00003304  00000-0  29227-4 0  9997,2 55777  70.0005  49.5172 0003538 262.8791  97.2003 15.69929527  6571,6737.236,91.724,361.484,356.717,0.0
55777.0,STARLINK-5814,PAYLOAD,2023-04-10 20:29:45,15.69924942,0.0003147,69.9994,48.0843,265.5301,94.5535,1.8689e-05,2.035e-05,0.0,0 STARLINK-5814,1 55777U 23028AN  23100.85400015  .00002035  00000-0  18689-4 0  9991,2 55777  69.9994  48.0843 0003147 265.5301  94.5535 15.69924942  6652,6737.249,91.724,361.234,356.994,0.0
55777.0,STARLINK-5814,PAYLOAD,2023-04-11 07:12:01,15.6992705,0.0003048,70.0002,46.832,263.5782,96.5067,-7.3703e-06,-1.099e-05,0.0,0 STARLINK-5814,1 55777U 23028AN  23101.30001926 -.00001099  00000-0 -73703-5 0  9990,2 55777  70.0002  46.8320 0003048 263.5782  96.5067 15.69927050  6725,6737.243,91.724,361.161,357.054,0.0
55777.0,STARLINK-5814,PAYLOAD,2023-04-11 19:26:02,15.69927732,0.0003273,70.0001,45.3994,263.3551,96.7272,7.19e-06,6.52e-06,0.0,0 STARLINK-5814,1 55777U 23028AN  23101.80974606  .00000652  00000-0  71900-5 0  9998,2 55777  70.0001  45.3994 0003273 263.3551  96.7272 15.69927732  6803,6737.241,91.724,361.311,356.901,0.0
55777.0,STARLINK-5814,PAYLOAD,2023-04-12 04:36:32,15.69930135,0.0003437,70.0012,44.3247,268.2047,91.8755,1.1321e-05,1.149e-05,0.0,0 STARLINK-5814,1 55777U 23028AN  23102.19204275  .00001149  00000-0  11321-4 0  9991,2 55777  70.0012  44.3247 0003437 268.2047  91.8755 15.69930135  6860,6737.234,91.724,361.414,356.783,0.0
55777.0,STARLINK-5814,PAYLOAD,2023-04-12 13:47:03,15.69919501,0.0003088,70.0015,43.2478,264.5672,95.5172,8.0442e-06,7.55e-06,0.0,0 STARLINK-5814,1 55777U 23028AN  23102.57434925  .00000755  00000-0  80442-5 0  9993,2 55777  70.0015  43.2478 0003088 264.5672  95.5172 15.69919501  6927,6737.264,91.724,361.21,357.049,0.0
55777.0,STARLINK-5814,PAYLOAD,2023-04-13 05:04:34,15.69925252,0.0003045,69.9991,41.4565,264.1869,95.898,1.7233e-05,1.86e-05,0.0,0 STARLINK-5814,1 55777U 23028AN  23103.21151334  .00001860  00000-0  17233-4 0  9990,2 55777  69.9991  41.4565 0003045 264.1869  95.8980 15.69925252  7023,6737.248,91.724,361.164,357.061,0.0
55777.0,STARLINK-5814,PAYLOAD,2023-04-14 07:04:21,15.69934658,0.0003081,70.0004,38.4123,262.5916,97.493,2.4058e-05,2.682e-05,0.0,0 STARLINK-5814,1 55777U 23028AN  23104.29468979  .00002682  00000-0  24058-4 0  9991,2 55777  70.0004  38.4123 0003081 262.5916  97.4930 15.69934658  7193,6737.221,91.724,361.162,357.01,0.0
55777.0,STARLINK-5814,PAYLOAD,2023-04-15 04:28:54,15.69864642,0.0002459,70.0009,35.9061,270.6043,89.4871,0.00011528,0.00013636,0.0,0 STARLINK-5814,1 55777U 23028AN  23105.18674726  .00013636  00000-0  11528-3 0  9997,2 55777  70.0009  35.9061 0002459 270.6043  89.4871 15.69864642  7336,6737.421,91.728,360.943,357.63,0.0
55777.0,STARLINK-5814,PAYLOAD,2023-04-15 18:14:39,15.69922034,0.0003285,70.0004,34.2956,255.6196,104.4636,9.0515e-06,8.76e-06,0.0,0 STARLINK-5814,1 55777U 23028AN  23105.76018411  .00000876  00000-0  90515-5 0  9991,2 55777  70.0004  34.2956 0003285 255.6196 104.4636 15.69922034  7423,6737.257,91.724,361.335,356.909,0.0
55777.0,STARLINK-5814,PAYLOAD,2023-04-15 21:18:10,15.6992032,0.0003277,70.0003,33.9347,263.1914,96.8909,9.8021e-06,9.66e-06,0.0,0 STARLINK-5814,1 55777U 23028AN  23105.88761910  .00000966  00000-0  98021-5 0  9993,2 55777  70.0003  33.9347 0003277 263.1914  96.8909 15.69920320  7440,6737.262,91.724,361.335,356.919,0.0
55777.0,STARLINK-5814,PAYLOAD,2023-04-16 04:56:57,15.69896249,0.0002195,70.0015,33.0402,253.0154,107.0802,-3.4447e-05,-4.346e-05,0.0,0 STARLINK-5814,1 55777U 23028AN  23106.20622682 -.00004346  00000-0 -34447-4 0  9991,2 55777  70.0015  33.0402 0002195 253.0154 107.0802 15.69896249  7492,6737.331,91.726,360.675,357.717,0.0
55777.0,STARLINK-5814,PAYLOAD,2023-04-16 20:14:27,15.69913657,0.000304,70.0001,31.2466,255.4266,104.6593,4.7162e-06,3.54e-06,0.0,0 STARLINK-5814,1 55777U 23028AN  23106.84337578  .00000354  00000-0  47162-5 0  9990,2 55777  70.0001  31.2466 0003040 255.4266 104.6593 15.69913657  7591,6737.281,91.725,361.194,357.098,0.0
55777.0,STARLINK-5814,PAYLOAD,2023-04-16 21:46:12,15.69913894,0.0003086,70.0001,31.0672,262.8232,97.2613,5.7201e-06,4.75e-06,0.0,0 STARLINK-5814,1 55777U 23028AN  23106.90709324  .00000475  00000-0  57201-5 0  9998,2 55777  70.0001  31.0672 0003086 262.8232  97.2613 15.69913894  7608,6737.28,91.725,361.224,357.066,0.0
55777.0,STARLINK-5814,PAYLOAD,2023-04-17 03:53:12,15.69924001,0.0002657,70.0005,30.3521,244.6774,115.4147,1.4653e-05,1.55e-05,0.0,0 STARLINK-5814,1 55777U 23028AN  23107.16195284  .00001550  00000-0  14653-4 0  9999,2 55777  70.0005  30.3521 0002657 244.6774 115.4147 15.69924001  7640,6737.251,91.724,360.907,357.326,0.0
55777.0,STARLINK-5814,PAYLOAD,2023-04-17 20:42:29,15.69925695,0.0002618,70.0011,28.3817,238.084,122.0101,9.1227e-06,8.85e-06,0.0,0 STARLINK-5814,1 55777U 23028AN  23107.86283764  .00000885  00000-0  91227-5 0  9990,2 55777  70.0011  28.3817 0002618 238.0840 122.0101 15.69925695  7756,6737.247,91.724,360.875,357.348,0.0
